TWILIGHT H              
1 67370U 26004H   26027.49137619  .00007818  00000+0  87111-3 0  9996
2 67370  97.7953  28.3781 0005543 243.3161 116.7488 14.87331813  2377
TWILIGHT J              
1 67371U 26004J   26027.48782520  .00010557  00000+0  11629-2 0  9997
2 67371  97.7995  28.3854 0004703 224.7810 135.3027 14.87715041  2371
TWILIGHT K              
1 67372U 26004K   26027.48444881  .00004467  00000+0  49314-3 0  9999
2 67372  97.7971  28.3874 0003090 217.6824 142.4176 14.87945744  2371
TWILIGHT L              
1 67373U 26004L   26027.48863338  .00004260  00000+0  47507-3 0  9995
2 67373  97.7985  28.3836 0004675 231.0040 129.0760 14.87551254  2374
TWILIGHT M              
1 67374U 26004M   26027.48520459  .00004704  00000+0  51956-3 0  9996
2 67374  97.7970  28.3852 0003357 218.7379 141.3597 14.87897065  2378
TWILIGHT N              
1 67375U 26004N   26027.48491890  .00005164  00000+0  56940-3 0  9992
2 67375  97.8007  28.3912 0003939 212.9539 147.1432 14.87924676  2379
TWILIGHT P              
1 67376U 26004P   26027.48646780  .00005133  00000+0  56806-3 0  9990
2 67376  97.8003  28.3883 0004282 219.9065 140.1837 14.87776802  2374
TWILIGHT Q              
1 67377U 26004Q   26027.41752447  .00006377  00000+0  70131-3 0  9990
2 67377  97.8007  28.3251 0003908 211.3710 148.7274 14.87942609  2352
TWILIGHT R              
1 67378U 26004R   26027.48726654  .00005258  00000+0  58279-3 0  9995
2 67378  97.7978  28.3836 0003701 230.5737 129.5152 14.87700040  2365
TWILIGHT S              
1 67379U 26004S   26027.48713760  .00005088  00000+0  56402-3 0  9997
2 67379  97.7982  28.3853 0004213 226.3718 133.7149 14.87710591  2366
TWILIGHT T              
1 67380U 26004T   26027.48619881  .00004956  00000+0  54824-3 0  9997
2 67380  97.7974  28.3853 0003709 225.3007 134.7908 14.87807455  2368
TWILIGHT U              
1 67381U 26004U   26027.28300046  .00006175  00000+0  67931-3 0  9994
2 67381  97.8011  28.1947 0004044 214.2442 145.8514 14.87944030  2331
