CCSDS_OMM_VERS = 2.0
CREATION_DATE  = 
ORIGINATOR     = 

OBJECT_NAME    = TWILIGHT H
OBJECT_ID      = 2026-004H
CENTER_NAME    = EARTH
REF_FRAME      = TEME
TIME_SYSTEM    = UTC
MEAN_ELEMENT_THEORY = SGP/SGP4

EPOCH          = 2026-01-27T11:47:34.902816
MEAN_MOTION    = 14.87331813
ECCENTRICITY   = .0005543
INCLINATION    = 97.7953
RA_OF_ASC_NODE = 28.3781
ARG_OF_PERICENTER = 243.3161
MEAN_ANOMALY   = 116.7488

EPHEMERIS_TYPE = 0
CLASSIFICATION_TYPE = U
NORAD_CAT_ID   = 67370
ELEMENT_SET_NO = 999
REV_AT_EPOCH   = 237
BSTAR          = .87111E-3
MEAN_MOTION_DOT = .7818E-4
MEAN_MOTION_DDOT = 0

CCSDS_OMM_VERS = 2.0
CREATION_DATE  = 
ORIGINATOR     = 

OBJECT_NAME    = TWILIGHT J
OBJECT_ID      = 2026-004J
CENTER_NAME    = EARTH
REF_FRAME      = TEME
TIME_SYSTEM    = UTC
MEAN_ELEMENT_THEORY = SGP/SGP4

EPOCH          = 2026-01-27T11:42:28.097280
MEAN_MOTION    = 14.87715041
ECCENTRICITY   = .0004703
INCLINATION    = 97.7995
RA_OF_ASC_NODE = 28.3854
ARG_OF_PERICENTER = 224.7810
MEAN_ANOMALY   = 135.3027

EPHEMERIS_TYPE = 0
CLASSIFICATION_TYPE = U
NORAD_CAT_ID   = 67371
ELEMENT_SET_NO = 999
REV_AT_EPOCH   = 237
BSTAR          = .11629E-2
MEAN_MOTION_DOT = .10557E-3
MEAN_MOTION_DDOT = 0

CCSDS_OMM_VERS = 2.0
CREATION_DATE  = 
ORIGINATOR     = 

OBJECT_NAME    = TWILIGHT K
OBJECT_ID      = 2026-004K
CENTER_NAME    = EARTH
REF_FRAME      = TEME
TIME_SYSTEM    = UTC
MEAN_ELEMENT_THEORY = SGP/SGP4

EPOCH          = 2026-01-27T11:37:36.377184
MEAN_MOTION    = 14.87945744
ECCENTRICITY   = .000309
INCLINATION    = 97.7971
RA_OF_ASC_NODE = 28.3874
ARG_OF_PERICENTER = 217.6824
MEAN_ANOMALY   = 142.4176

EPHEMERIS_TYPE = 0
CLASSIFICATION_TYPE = U
NORAD_CAT_ID   = 67372
ELEMENT_SET_NO = 999
REV_AT_EPOCH   = 237
BSTAR          = .49314E-3
MEAN_MOTION_DOT = .4467E-4
MEAN_MOTION_DDOT = 0

CCSDS_OMM_VERS = 2.0
CREATION_DATE  = 
ORIGINATOR     = 

OBJECT_NAME    = TWILIGHT L
OBJECT_ID      = 2026-004L
CENTER_NAME    = EARTH
REF_FRAME      = TEME
TIME_SYSTEM    = UTC
MEAN_ELEMENT_THEORY = SGP/SGP4

EPOCH          = 2026-01-27T11:43:37.924032
MEAN_MOTION    = 14.87551254
ECCENTRICITY   = .0004675
INCLINATION    = 97.7985
RA_OF_ASC_NODE = 28.3836
ARG_OF_PERICENTER = 231.0040
MEAN_ANOMALY   = 129.0760

EPHEMERIS_TYPE = 0
CLASSIFICATION_TYPE = U
NORAD_CAT_ID   = 67373
ELEMENT_SET_NO = 999
REV_AT_EPOCH   = 237
BSTAR          = .47507E-3
MEAN_MOTION_DOT = .426E-4
MEAN_MOTION_DDOT = 0

CCSDS_OMM_VERS = 2.0
CREATION_DATE  = 
ORIGINATOR     = 

OBJECT_NAME    = TWILIGHT M
OBJECT_ID      = 2026-004M
CENTER_NAME    = EARTH
REF_FRAME      = TEME
TIME_SYSTEM    = UTC
MEAN_ELEMENT_THEORY = SGP/SGP4

EPOCH          = 2026-01-27T11:38:41.676576
MEAN_MOTION    = 14.87897065
ECCENTRICITY   = .0003357
INCLINATION    = 97.7970
RA_OF_ASC_NODE = 28.3852
ARG_OF_PERICENTER = 218.7379
MEAN_ANOMALY   = 141.3597

EPHEMERIS_TYPE = 0
CLASSIFICATION_TYPE = U
NORAD_CAT_ID   = 67374
ELEMENT_SET_NO = 999
REV_AT_EPOCH   = 237
BSTAR          = .51956E-3
MEAN_MOTION_DOT = .4704E-4
MEAN_MOTION_DDOT = 0

CCSDS_OMM_VERS = 2.0
CREATION_DATE  = 
ORIGINATOR     = 

OBJECT_NAME    = TWILIGHT N
OBJECT_ID      = 2026-004N
CENTER_NAME    = EARTH
REF_FRAME      = TEME
TIME_SYSTEM    = UTC
MEAN_ELEMENT_THEORY = SGP/SGP4

EPOCH          = 2026-01-27T11:38:16.992960
MEAN_MOTION    = 14.87924676
ECCENTRICITY   = .0003939
INCLINATION    = 97.8007
RA_OF_ASC_NODE = 28.3912
ARG_OF_PERICENTER = 212.9539
MEAN_ANOMALY   = 147.1432

EPHEMERIS_TYPE = 0
CLASSIFICATION_TYPE = U
NORAD_CAT_ID   = 67375
ELEMENT_SET_NO = 999
REV_AT_EPOCH   = 237
BSTAR          = .5694E-3
MEAN_MOTION_DOT = .5164E-4
MEAN_MOTION_DDOT = 0

CCSDS_OMM_VERS = 2.0
CREATION_DATE  = 
ORIGINATOR     = 

OBJECT_NAME    = TWILIGHT P
OBJECT_ID      = 2026-004P
CENTER_NAME    = EARTH
REF_FRAME      = TEME
TIME_SYSTEM    = UTC
MEAN_ELEMENT_THEORY = SGP/SGP4

EPOCH          = 2026-01-27T11:40:30.817920
MEAN_MOTION    = 14.87776802
ECCENTRICITY   = .0004282
INCLINATION    = 97.8003
RA_OF_ASC_NODE = 28.3883
ARG_OF_PERICENTER = 219.9065
MEAN_ANOMALY   = 140.1837

EPHEMERIS_TYPE = 0
CLASSIFICATION_TYPE = U
NORAD_CAT_ID   = 67376
ELEMENT_SET_NO = 999
REV_AT_EPOCH   = 237
BSTAR          = .56806E-3
MEAN_MOTION_DOT = .5133E-4
MEAN_MOTION_DDOT = 0

CCSDS_OMM_VERS = 2.0
CREATION_DATE  = 
ORIGINATOR     = 

OBJECT_NAME    = TWILIGHT Q
OBJECT_ID      = 2026-004Q
CENTER_NAME    = EARTH
REF_FRAME      = TEME
TIME_SYSTEM    = UTC
MEAN_ELEMENT_THEORY = SGP/SGP4

EPOCH          = 2026-01-27T10:01:14.114208
MEAN_MOTION    = 14.87942609
ECCENTRICITY   = .0003908
INCLINATION    = 97.8007
RA_OF_ASC_NODE = 28.3251
ARG_OF_PERICENTER = 211.3710
MEAN_ANOMALY   = 148.7274

EPHEMERIS_TYPE = 0
CLASSIFICATION_TYPE = U
NORAD_CAT_ID   = 67377
ELEMENT_SET_NO = 999
REV_AT_EPOCH   = 235
BSTAR          = .70131E-3
MEAN_MOTION_DOT = .6377E-4
MEAN_MOTION_DDOT = 0

CCSDS_OMM_VERS = 2.0
CREATION_DATE  = 
ORIGINATOR     = 

OBJECT_NAME    = TWILIGHT R
OBJECT_ID      = 2026-004R
CENTER_NAME    = EARTH
REF_FRAME      = TEME
TIME_SYSTEM    = UTC
MEAN_ELEMENT_THEORY = SGP/SGP4

EPOCH          = 2026-01-27T11:41:39.829056
MEAN_MOTION    = 14.87700040
ECCENTRICITY   = .0003701
INCLINATION    = 97.7978
RA_OF_ASC_NODE = 28.3836
ARG_OF_PERICENTER = 230.5737
MEAN_ANOMALY   = 129.5152

EPHEMERIS_TYPE = 0
CLASSIFICATION_TYPE = U
NORAD_CAT_ID   = 67378
ELEMENT_SET_NO = 999
REV_AT_EPOCH   = 236
BSTAR          = .58279E-3
MEAN_MOTION_DOT = .5258E-4
MEAN_MOTION_DDOT = 0

CCSDS_OMM_VERS = 2.0
CREATION_DATE  = 
ORIGINATOR     = 

OBJECT_NAME    = TWILIGHT S
OBJECT_ID      = 2026-004S
CENTER_NAME    = EARTH
REF_FRAME      = TEME
TIME_SYSTEM    = UTC
MEAN_ELEMENT_THEORY = SGP/SGP4

EPOCH          = 2026-01-27T11:41:28.688640
MEAN_MOTION    = 14.87710591
ECCENTRICITY   = .0004213
INCLINATION    = 97.7982
RA_OF_ASC_NODE = 28.3853
ARG_OF_PERICENTER = 226.3718
MEAN_ANOMALY   = 133.7149

EPHEMERIS_TYPE = 0
CLASSIFICATION_TYPE = U
NORAD_CAT_ID   = 67379
ELEMENT_SET_NO = 999
REV_AT_EPOCH   = 236
BSTAR          = .56402E-3
MEAN_MOTION_DOT = .5088E-4
MEAN_MOTION_DDOT = 0

CCSDS_OMM_VERS = 2.0
CREATION_DATE  = 
ORIGINATOR     = 

OBJECT_NAME    = TWILIGHT T
OBJECT_ID      = 2026-004T
CENTER_NAME    = EARTH
REF_FRAME      = TEME
TIME_SYSTEM    = UTC
MEAN_ELEMENT_THEORY = SGP/SGP4

EPOCH          = 2026-01-27T11:40:07.577184
MEAN_MOTION    = 14.87807455
ECCENTRICITY   = .0003709
INCLINATION    = 97.7974
RA_OF_ASC_NODE = 28.3853
ARG_OF_PERICENTER = 225.3007
MEAN_ANOMALY   = 134.7908

EPHEMERIS_TYPE = 0
CLASSIFICATION_TYPE = U
NORAD_CAT_ID   = 67380
ELEMENT_SET_NO = 999
REV_AT_EPOCH   = 236
BSTAR          = .54824E-3
MEAN_MOTION_DOT = .4956E-4
MEAN_MOTION_DDOT = 0

CCSDS_OMM_VERS = 2.0
CREATION_DATE  = 
ORIGINATOR     = 

OBJECT_NAME    = TWILIGHT U
OBJECT_ID      = 2026-004U
CENTER_NAME    = EARTH
REF_FRAME      = TEME
TIME_SYSTEM    = UTC
MEAN_ELEMENT_THEORY = SGP/SGP4

EPOCH          = 2026-01-27T06:47:31.239744
MEAN_MOTION    = 14.87944030
ECCENTRICITY   = .00040445
INCLINATION    = 97.8011
RA_OF_ASC_NODE = 28.1947
ARG_OF_PERICENTER = 214.2442
MEAN_ANOMALY   = 145.8514

EPHEMERIS_TYPE = 0
CLASSIFICATION_TYPE = U
NORAD_CAT_ID   = 67381
ELEMENT_SET_NO = 999
REV_AT_EPOCH   = 233
BSTAR          = .67930826E-3
MEAN_MOTION_DOT = .6175E-4
MEAN_MOTION_DDOT = 0

